GPS BIIR-2  (PRN 13)    
1 24876U 97035A   21345.89624257  .00000095  00000+0  00000+0 0  9991
2 24876  55.4886 162.9905 0055675  54.6927 305.8497  2.00562996178896
GPS BIIR-4  (PRN 20)    
1 26360U 00025A   21346.40280894 -.00000054  00000+0  00000+0 0  9993
2 26360  53.9096  86.6049 0054085 177.8753 275.4011  2.00559743158227
GPS BIIR-8  (PRN 16)    
1 27663U 03005A   21346.54417922 -.00000071  00000+0  00000+0 0  9999
2 27663  55.6439 280.4815 0123362  38.5959 134.0782  2.00575600138262
GPS BIIR-9  (PRN 21)    
1 27704U 03010A   21346.49530701 -.00000103  00000+0  00000+0 0  9992
2 27704  54.9466  30.8847 0245810 299.8923  56.7028  2.00571501137053
GPS BIIR-10 (PRN 22)    
1 28129U 03058A   21345.58817077 -.00000041  00000+0  00000+0 0  9990
2 28129  53.7208  89.2685 0069689 308.8691  50.5046  2.00564694131720
GPS BIIR-11 (PRN 19)    
1 28190U 04009A   21346.13551787 -.00000077  00000+0  00000+0 0  9999
2 28190  56.1069 341.4264 0086992 114.3534 284.9727  2.00564401129898
GPS BIIR-13 (PRN 02)    
1 28474U 04045A   21345.95442785 -.00000103  00000+0  00000+0 0  9990
2 28474  55.2773  30.9761 0207947 275.6485 260.6203  2.00566145125374
GPS BIIRM-1 (PRN 17)    
1 28874U 05038A   21346.04404587 -.00000076  00000+0  00000+0 0  9995
2 28874  56.1814 338.8548 0139845 272.5998  83.2611  2.00558855118770
GPS BIIRM-2 (PRN 31)    
1 29486U 06042A   21346.57526194  .00000032  00000+0  00000+0 0  9999
2 29486  54.7387 216.7092 0103450  18.7534 277.0968  2.00565181111340
GPS BIIRM-3 (PRN 12)    
1 29601U 06052A   21346.11513422 -.00000068  00000+0  00000+0 0  9999
2 29601  55.6452 279.4296 0082308  69.9642 290.9278  2.00567707110354
GPS BIIRM-4 (PRN 15)    
1 32260U 07047A   21346.41901947  .00000081  00000+0  00000+0 0  9999
2 32260  53.2691 148.2949 0137217  60.4158 300.9449  2.00558480103761
GPS BIIRM-5 (PRN 29)    
1 32384U 07062A   21346.03885935 -.00000075  00000+0  00000+0 0  9993
2 32384  56.2945 339.5922 0015884 139.5058  78.4458  2.00551863102451
GPS BIIRM-6 (PRN 07)    
1 32711U 08012A   21346.33834307  .00000031  00000+0  00000+0 0  9994
2 32711  54.4949 215.6967 0155097 228.8136 129.9151  2.00558466100706
GPS BIIRM-8 (PRN 05)    
1 35752U 09043A   21346.08519736 -.00000035  00000+0  00000+0 0  9990
2 35752  54.9320  93.0819 0057502  57.1556 136.9363  2.00568540 90308
GPS BIIF-1  (PRN 25)    
1 36585U 10022A   21346.50671478 -.00000068  00000+0  00000+0 0  9999
2 36585  54.9234 275.0632 0099963  54.5475 202.0534  2.00555653 84545
GPS BIIF-2  (PRN 01)    
1 37753U 11036A   21346.43314472 -.00000102  00000+0  00000+0 0  9992
2 37753  56.5147  35.9937 0109575  49.9201 236.9433  2.00564237 76229
GPS BIIF-3  (PRN 24)    
1 38833U 12053A   21345.52075115  .00000030  00000+0  00000+0 0  9998
2 38833  53.5474 211.0530 0119693  44.4381 316.5920  2.00559769 66371
GPS BIIF-4  (PRN 27)    
1 39166U 13023A   21345.88072935 -.00000075  00000+0  00000+0 0  9992
2 39166  55.8168 335.3073 0096903  34.7033 325.9361  2.00566967 62829
GPS BIIF-5  (PRN 30)    
1 39533U 14008A   21345.87864549  .00000023  00000+0  00000+0 0  9995
2 39533  53.6456 216.5254 0054432 204.5576 155.2575  2.00570799 56624
GPS BIIF-6  (PRN 06)    
1 39741U 14026A   21345.65776132 -.00000101  00000+0  00000+0 0  9990
2 39741  56.4798  35.5504 0027018 298.4034  61.3752  2.00569210 55475
GPS BIIF-7  (PRN 09)    
1 40105U 14045A   21345.75085116  .00000089  00000+0  00000+0 0  9997
2 40105  54.6553 154.2990 0021522 107.1192 253.1257  2.00565040 53019
GPS BIIF-8  (PRN 03)    
1 40294U 14068A   21345.62231639 -.00000025  00000+0  00000+0 0  9991
2 40294  55.6772  95.3646 0036695  55.1100 305.2214  2.00558317 52147
GPS BIIF-9  (PRN 26)    
1 40534U 15013A   21346.25375717 -.00000066  00000+0  00000+0 0  9990
2 40534  53.8269 272.4506 0065337  16.7856 343.4457  2.00563931 48779
GPS BIIF-10 (PRN 08)    
1 40730U 15033A   21345.91680522 -.00000076  00000+0  00000+0 0  9996
2 40730  55.3201 334.2237 0069185   1.6446 358.3869  2.00561793 46933
GPS BIIF-11 (PRN 10)    
1 41019U 15062A   21345.96723180 -.00000028  00000+0  00000+0 0  9999
2 41019  55.6683  95.1899 0074445 214.8714 144.6274  2.00563100 44779
GPS BIIF-12 (PRN 32)    
1 41328U 16007A   21345.56295587  .00000089  00000+0  00000+0 0  9999
2 41328  54.8779 154.9314 0054379 224.9402 134.6283  2.00554353 42772
GPS BIII-1  (PRN 04)    
1 43873U 18109A   21345.71794958  .00000091  00000+0  00000+0 0  9997
2 43873  55.0587 157.3038 0016023 188.8260 177.2468  2.00563722 22016
GPS BIII-2  (PRN 18)    
1 44506U 19056A   21346.52882414 -.00000103  00000+0  00000+0 0  9993
2 44506  55.5852  36.4922 0020921 182.7831 310.8839  2.00568399 17025
GPS BIII-3  (PRN 23)    
1 45854U 20041A   21346.42959681 -.00000037  00000+0  00000+0 0  9992
2 45854  55.3848  93.7663 0018715 169.9951 193.1652  2.00561521 10995
GPS BIII-4  (PRN 14)    
1 46826U 20078A   21346.31333679 -.00000069  00000+0  00000+0 0  9998
2 46826  54.6952 277.6870 0012396 187.4338  62.3579  2.00566947  8459
